[{"OBJECT_NAME":"ONEWEB-0035","OBJECT_ID":"2020-008N","EPOCH":"2026-03-09T12:19:14.786976","MEAN_MOTION":13.10369834,"ECCENTRICITY":0.0001931,"INCLINATION":87.8765,"RA_OF_ASC_NODE":56.1252,"ARG_OF_PERICENTER":88.3981,"MEAN_ANOMALY":271.7368,"EPHEMERIS_TYPE":0,"CLASSIFICATION_TYPE":"U","NORAD_CAT_ID":45143,"ELEMENT_SET_NO":999,"REV_AT_EPOCH":29488,"BSTAR":-0.00068829465,"MEAN_MOTION_DOT":-2.28e-6,"MEAN_MOTION_DDOT":0},{"OBJECT_NAME":"ONEWEB-0036","OBJECT_ID":"2020-008P","EPOCH":"2026-03-09T12:19:07.248576","MEAN_MOTION":13.0981252,"ECCENTRICITY":0.0001621,"INCLINATION":87.8776,"RA_OF_ASC_NODE":56.0966,"ARG_OF_PERICENTER":81.9386,"MEAN_ANOMALY":278.1925,"EPHEMERIS_TYPE":0,"CLASSIFICATION_TYPE":"U","NORAD_CAT_ID":45144,"ELEMENT_SET_NO":999,"REV_AT_EPOCH":29531,"BSTAR":-0.0007438965,"MEAN_MOTION_DOT":-2.45e-6,"MEAN_MOTION_DDOT":0},{"OBJECT_NAME":"ONEWEB-0038","OBJECT_ID":"2020-008Q","EPOCH":"2026-03-09T19:55:54.145056","MEAN_MOTION":13.11417713,"ECCENTRICITY":0.0002228,"INCLINATION":87.8873,"RA_OF_ASC_NODE":40.819,"ARG_OF_PERICENTER":131.0341,"MEAN_ANOMALY":229.098,"EPHEMERIS_TYPE":0,"CLASSIFICATION_TYPE":"U","NORAD_CAT_ID":45145,"ELEMENT_SET_NO":999,"REV_AT_EPOCH":29730,"BSTAR":0.0015614,"MEAN_MOTION_DOT":5.66e-6,"MEAN_MOTION_DDOT":0},{"OBJECT_NAME":"ONEWEB-0039","OBJECT_ID":"2020-008R","EPOCH":"2026-03-09T20:49:35.925888","MEAN_MOTION":13.10374531,"ECCENTRICITY":0.0001288,"INCLINATION":87.8785,"RA_OF_ASC_NODE":56.0388,"ARG_OF_PERICENTER":87.4001,"MEAN_ANOMALY":272.7273,"EPHEMERIS_TYPE":0,"CLASSIFICATION_TYPE":"U","NORAD_CAT_ID":45146,"ELEMENT_SET_NO":999,"REV_AT_EPOCH":29515,"BSTAR":0.0017225,"MEAN_MOTION_DOT":6.14e-6,"MEAN_MOTION_DDOT":0},{"OBJECT_NAME":"ONEWEB-0040","OBJECT_ID":"2020-008S","EPOCH":"2026-03-09T20:40:02.424288","MEAN_MOTION":13.10375891,"ECCENTRICITY":0.0001795,"INCLINATION":87.8774,"RA_OF_ASC_NODE":56.0563,"ARG_OF_PERICENTER":89.9603,"MEAN_ANOMALY":270.173,"EPHEMERIS_TYPE":0,"CLASSIFICATION_TYPE":"U","NORAD_CAT_ID":45147,"ELEMENT_SET_NO":999,"REV_AT_EPOCH":29485,"BSTAR":0.0011428,"MEAN_MOTION_DOT":4.12e-6,"MEAN_MOTION_DDOT":0},{"OBJECT_NAME":"ONEWEB-0043","OBJECT_ID":"2020-008U","EPOCH":"2026-03-09T11:32:39.006528","MEAN_MOTION":13.10375171,"ECCENTRICITY":0.00012717,"INCLINATION":87.8779,"RA_OF_ASC_NODE":56.1153,"ARG_OF_PERICENTER":82.2233,"MEAN_ANOMALY":277.9039,"EPHEMERIS_TYPE":0,"CLASSIFICATION_TYPE":"U","NORAD_CAT_ID":45149,"ELEMENT_SET_NO":999,"REV_AT_EPOCH":29512,"BSTAR":0.0013564298,"MEAN_MOTION_DOT":4.86e-6,"MEAN_MOTION_DDOT":0},{"OBJECT_NAME":"ONEWEB-0044","OBJECT_ID":"2020-008V","EPOCH":"2026-03-09T12:13:16.627008","MEAN_MOTION":13.10369596,"ECCENTRICITY":0.00016631,"INCLINATION":87.8776,"RA_OF_ASC_NODE":56.1057,"ARG_OF_PERICENTER":89.3257,"MEAN_ANOMALY":270.8061,"EPHEMERIS_TYPE":0,"CLASSIFICATION_TYPE":"U","NORAD_CAT_ID":45150,"ELEMENT_SET_NO":999,"REV_AT_EPOCH":29542,"BSTAR":-0.00018117659,"MEAN_MOTION_DOT":-5.1e-7,"MEAN_MOTION_DDOT":0},{"OBJECT_NAME":"ONEWEB-0045","OBJECT_ID":"2020-008W","EPOCH":"2026-03-09T10:39:02.930688","MEAN_MOTION":13.11416494,"ECCENTRICITY":0.00017369,"INCLINATION":87.8871,"RA_OF_ASC_NODE":40.883,"ARG_OF_PERICENTER":84.6903,"MEAN_ANOMALY":275.4423,"EPHEMERIS_TYPE":0,"CLASSIFICATION_TYPE":"U","NORAD_CAT_ID":45151,"ELEMENT_SET_NO":999,"REV_AT_EPOCH":29733,"BSTAR":0.0014552577,"MEAN_MOTION_DOT":5.28e-6,"MEAN_MOTION_DDOT":0},{"OBJECT_NAME":"ONEWEB-0047","OBJECT_ID":"2020-008X","EPOCH":"2026-03-09T21:13:30.056160","MEAN_MOTION":13.1037158,"ECCENTRICITY":0.0001974,"INCLINATION":87.8771,"RA_OF_ASC_NODE":56.0334,"ARG_OF_PERICENTER":90.1127,"MEAN_ANOMALY":270.0227,"EPHEMERIS_TYPE":0,"CLASSIFICATION_TYPE":"U","NORAD_CAT_ID":45152,"ELEMENT_SET_NO":999,"REV_AT_EPOCH":29519,"BSTAR":0.00038888,"MEAN_MOTION_DOT":1.48e-6,"MEAN_MOTION_DDOT":0},{"OBJECT_NAME":"ONEWEB-0048","OBJECT_ID":"2020-008Y","EPOCH":"2026-03-09T21:06:19.994112","MEAN_MOTION":13.10370325,"ECCENTRICITY":0.0001889,"INCLINATION":87.8769,"RA_OF_ASC_NODE":56.0617,"ARG_OF_PERICENTER":88.0943,"MEAN_ANOMALY":272.04,"EPHEMERIS_TYPE":0,"CLASSIFICATION_TYPE":"U","NORAD_CAT_ID":45153,"ELEMENT_SET_NO":999,"REV_AT_EPOCH":29480,"BSTAR":0.0018537,"MEAN_MOTION_DOT":6.6e-6,"MEAN_MOTION_DDOT":0},{"OBJECT_NAME":"ONEWEB-0049","OBJECT_ID":"2020-008Z","EPOCH":"2026-03-09T21:10:54.676128","MEAN_MOTION":13.10369947,"ECCENTRICITY":0.0001775,"INCLINATION":87.8767,"RA_OF_ASC_NODE":56.0489,"ARG_OF_PERICENTER":71.633,"MEAN_ANOMALY":288.4991,"EPHEMERIS_TYPE":0,"CLASSIFICATION_TYPE":"U","NORAD_CAT_ID":45154,"ELEMENT_SET_NO":999,"REV_AT_EPOCH":29502,"BSTAR":0.001376,"MEAN_MOTION_DOT":4.93e-6,"MEAN_MOTION_DDOT":0},{"OBJECT_NAME":"ONEWEB-0051","OBJECT_ID":"2020-008AA","EPOCH":"2026-03-09T19:45:56.642400","MEAN_MOTION":13.11417618,"ECCENTRICITY":0.0001826,"INCLINATION":87.8868,"RA_OF_ASC_NODE":40.8202,"ARG_OF_PERICENTER":83.0889,"MEAN_ANOMALY":277.0447,"EPHEMERIS_TYPE":0,"CLASSIFICATION_TYPE":"U","NORAD_CAT_ID":45155,"ELEMENT_SET_NO":999,"REV_AT_EPOCH":29806,"BSTAR":0.0014381,"MEAN_MOTION_DOT":5.22e-6,"MEAN_MOTION_DDOT":0},{"OBJECT_NAME":"ONEWEB-0052","OBJECT_ID":"2020-008AB","EPOCH":"2026-03-09T21:12:21.095136","MEAN_MOTION":13.09871527,"ECCENTRICITY":0.0001705,"INCLINATION":87.8776,"RA_OF_ASC_NODE":56.0211,"ARG_OF_PERICENTER":70.4367,"MEAN_ANOMALY":289.6944,"EPHEMERIS_TYPE":0,"CLASSIFICATION_TYPE":"U","NORAD_CAT_ID":45156,"ELEMENT_SET_NO":999,"REV_AT_EPOCH":29493,"BSTAR":0.0012988,"MEAN_MOTION_DOT":4.63e-6,"MEAN_MOTION_DDOT":0},{"OBJECT_NAME":"ONEWEB-0053","OBJECT_ID":"2020-008AC","EPOCH":"2026-03-09T20:37:39.040032","MEAN_MOTION":13.10376197,"ECCENTRICITY":0.00014,"INCLINATION":87.8774,"RA_OF_ASC_NODE":56.0628,"ARG_OF_PERICENTER":76.0097,"MEAN_ANOMALY":284.1186,"EPHEMERIS_TYPE":0,"CLASSIFICATION_TYPE":"U","NORAD_CAT_ID":45157,"ELEMENT_SET_NO":999,"REV_AT_EPOCH":29490,"BSTAR":0.0011652,"MEAN_MOTION_DOT":4.19e-6,"MEAN_MOTION_DDOT":0},{"OBJECT_NAME":"ONEWEB-0054","OBJECT_ID":"2020-008AD","EPOCH":"2026-03-09T12:18:03.457728","MEAN_MOTION":13.10370088,"ECCENTRICITY":0.00018296,"INCLINATION":87.8774,"RA_OF_ASC_NODE":56.1064,"ARG_OF_PERICENTER":83.8734,"MEAN_ANOMALY":276.2602,"EPHEMERIS_TYPE":0,"CLASSIFICATION_TYPE":"U","NORAD_CAT_ID":45158,"ELEMENT_SET_NO":999,"REV_AT_EPOCH":29497,"BSTAR":-0.00056051999,"MEAN_MOTION_DOT":-1.83e-6,"MEAN_MOTION_DDOT":0},{"OBJECT_NAME":"ONEWEB-0056","OBJECT_ID":"2020-008AE","EPOCH":"2026-03-09T21:00:21.773664","MEAN_MOTION":13.10372726,"ECCENTRICITY":0.0001914,"INCLINATION":87.8778,"RA_OF_ASC_NODE":56.034,"ARG_OF_PERICENTER":80.8891,"MEAN_ANOMALY":279.2453,"EPHEMERIS_TYPE":0,"CLASSIFICATION_TYPE":"U","NORAD_CAT_ID":45159,"ELEMENT_SET_NO":999,"REV_AT_EPOCH":29517,"BSTAR":0.0020462,"MEAN_MOTION_DOT":7.27e-6,"MEAN_MOTION_DDOT":0},{"OBJECT_NAME":"ONEWEB-0057","OBJECT_ID":"2020-008AF","EPOCH":"2026-03-09T21:11:20.078592","MEAN_MOTION":13.10374043,"ECCENTRICITY":0.0001517,"INCLINATION":87.877,"RA_OF_ASC_NODE":56.0421,"ARG_OF_PERICENTER":81.555,"MEAN_ANOMALY":278.575,"EPHEMERIS_TYPE":0,"CLASSIFICATION_TYPE":"U","NORAD_CAT_ID":45160,"ELEMENT_SET_NO":999,"REV_AT_EPOCH":29534,"BSTAR":0.0012936,"MEAN_MOTION_DOT":4.64e-6,"MEAN_MOTION_DDOT":0}]
