ONEWEB-0035             
1 45143U 20008N   26068.51336559 -.00000228  00000+0 -68829-3 0  9995
2 45143  87.8765  56.1252 0001931  88.3981 271.7368 13.10369834294885
ONEWEB-0036             
1 45144U 20008P   26068.51327834 -.00000245  00000+0 -74390-3 0  9991
2 45144  87.8776  56.0966 0001621  81.9386 278.1925 13.09812520295315
ONEWEB-0038             
1 45145U 20008Q   26068.83048779  .00000566  00000+0  15614-2 0  9992
2 45145  87.8873  40.8190 0002228 131.0341 229.0980 13.11417713297301
ONEWEB-0039             
1 45146U 20008R   26068.86777692  .00000614  00000+0  17225-2 0  9993
2 45146  87.8785  56.0388 0001288  87.4001 272.7273 13.10374531295154
ONEWEB-0040             
1 45147U 20008S   26068.86113917  .00000412  00000+0  11428-2 0  9993
2 45147  87.8774  56.0563 0001795  89.9603 270.1730 13.10375891294852
ONEWEB-0043             
1 45149U 20008U   26068.48100702  .00000486  00000+0  13564-2 0  9995
2 45149  87.8779  56.1153 0001271  82.2233 277.9039 13.10375171295128
ONEWEB-0044             
1 45150U 20008V   26068.50922022 -.00000051  00000+0 -18118-3 0  9998
2 45150  87.8776  56.1057 0001663  89.3257 270.8061 13.10369596295423
ONEWEB-0045             
1 45151U 20008W   26068.44378392  .00000528  00000+0  14553-2 0  9992
2 45151  87.8871  40.8830 0001736  84.6903 275.4423 13.11416494297332
ONEWEB-0047             
1 45152U 20008X   26068.88437565  .00000148  00000+0  38888-3 0  9995
2 45152  87.8771  56.0334 0001974  90.1127 270.0227 13.10371580295194
ONEWEB-0048             
1 45153U 20008Y   26068.87939808  .00000660  00000+0  18537-2 0  9999
2 45153  87.8769  56.0617 0001889  88.0943 272.0400 13.10370325294801
ONEWEB-0049             
1 45154U 20008Z   26068.88257727  .00000493  00000+0  13760-2 0  9991
2 45154  87.8767  56.0489 0001775  71.6330 288.4991 13.10369947295028
ONEWEB-0051             
1 45155U 20008AA  26068.82357225  .00000522  00000+0  14381-2 0  9993
2 45155  87.8868  40.8202 0001826  83.0889 277.0447 13.11417618298065
ONEWEB-0052             
1 45156U 20008AB  26068.88357749  .00000463  00000+0  12988-2 0  9996
2 45156  87.8776  56.0211 0001705  70.4367 289.6944 13.09871527294933
ONEWEB-0053             
1 45157U 20008AC  26068.85947963  .00000419  00000+0  11652-2 0  9995
2 45157  87.8774  56.0628 0001400  76.0097 284.1186 13.10376197294908
ONEWEB-0054             
1 45158U 20008AD  26068.51254002 -.00000183  00000+0 -56052-3 0  9998
2 45158  87.8774  56.1064 0001829  83.8734 276.2602 13.10370088294978
ONEWEB-0056             
1 45159U 20008AE  26068.87525201  .00000727  00000+0  20462-2 0  9997
2 45159  87.8778  56.0340 0001914  80.8891 279.2453 13.10372726295176
ONEWEB-0057             
1 45160U 20008AF  26068.88287128  .00000464  00000+0  12936-2 0  9998
2 45160  87.8770  56.0421 0001517  81.5550 278.5750 13.10374043295344
